{
  "type": "FeatureCollection",
  "features": [
    {
      "type": "Feature",
      "properties": {
        "norad_id": 43719,
        "name": "HYSIS",
        "group": "resource",
        "lat": -52.86621160450935,
        "lon": -136.94379222953722,
        "alt_km": 641.4196544591214,
        "timestamp": "2025-12-16T19:34:23.922751+00:00",
        "meta_object_name": "HYSIS",
        "meta_object_id": "2018-096A",
        "meta_epoch": "2025-12-15T23:01:52.982400",
        "meta_mean_motion": 14.78656651,
        "meta_eccentricity": 0.00012395,
        "meta_inclination": 98.0099,
        "meta_ra_of_asc_node": 52.9215,
        "meta_arg_of_pericenter": 54.8343,
        "meta_mean_anomaly": 305.2984,
        "meta_ephemeris_type": 0,
        "meta_classification_type": "U",
        "meta_norad_cat_id": 43719,
        "meta_element_set_no": 999,
        "meta_rev_at_epoch": 38034,
        "meta_bstar": 0.00017872356,
        "meta_mean_motion_dot": 1.257e-05,
        "meta_mean_motion_ddot": 0,
        "tle_line1": "1 43719U 18096A   25349.95964100  .00001257  00000+0  17872-3 0  9997",
        "tle_line2": "2 43719  98.0099  52.9215 0001239  54.8343 305.2984 14.78656651380345"
      },
      "geometry": {
        "type": "Point",
        "coordinates": [
          -136.94379222953722,
          -52.86621160450935
        ]
      }
    },
    {
      "type": "Feature",
      "properties": {
        "norad_id": 43783,
        "name": "KAZSTSAT",
        "group": "resource",
        "lat": 52.272202929156094,
        "lon": 16.081194036257568,
        "alt_km": 564.6963367086737,
        "timestamp": "2025-12-16T19:34:23.922761+00:00",
        "meta_object_name": "KAZSTSAT",
        "meta_object_id": "2018-099AB",
        "meta_epoch": "2025-12-15T12:54:22.403520",
        "meta_mean_motion": 14.99359975,
        "meta_eccentricity": 0.00058686,
        "meta_inclination": 97.4555,
        "meta_ra_of_asc_node": 24.6031,
        "meta_arg_of_pericenter": 317.8732,
        "meta_mean_anomaly": 42.204,
        "meta_ephemeris_type": 0,
        "meta_classification_type": "U",
        "meta_norad_cat_id": 43783,
        "meta_element_set_no": 999,
        "meta_rev_at_epoch": 38378,
        "meta_bstar": 5.7883892e-05,
        "meta_mean_motion_dot": 6.52e-06,
        "meta_mean_motion_ddot": 0,
        "tle_line1": "1 43783U 18099AB  25349.53775930  .00000652  00000+0  57884-4 0  9992",
        "tle_line2": "2 43783  97.4555  24.6031 0005868 317.8732  42.2040 14.99359975383788"
      },
      "geometry": {
        "type": "Point",
        "coordinates": [
          16.081194036257568,
          52.272202929156094
        ]
      }
    },
    {
      "type": "Feature",
      "properties": {
        "norad_id": 43831,
        "name": "SAUDISAT 5A",
        "group": "resource",
        "lat": 47.963010615983116,
        "lon": -120.85667327308401,
        "alt_km": 481.44880181768076,
        "timestamp": "2025-12-16T19:34:23.922772+00:00",
        "meta_object_name": "SAUDISAT 5A",
        "meta_object_id": "2018-102A",
        "meta_epoch": "2025-12-16T00:06:41.624352",
        "meta_mean_motion": 15.2569956,
        "meta_eccentricity": 0.0011643,
        "meta_inclination": 97.3356,
        "meta_ra_of_asc_node": 50.1329,
        "meta_arg_of_pericenter": 66.2019,
        "meta_mean_anomaly": 294.0439,
        "meta_ephemeris_type": 0,
        "meta_classification_type": "U",
        "meta_norad_cat_id": 43831,
        "meta_element_set_no": 999,
        "meta_rev_at_epoch": 38772,
        "meta_bstar": 0.00018866209,
        "meta_mean_motion_dot": 4.744e-05,
        "meta_mean_motion_ddot": 0,
        "tle_line1": "1 43831U 18102A   25350.00464843  .00004744  00000+0  18866-3 0  9995",
        "tle_line2": "2 43831  97.3356  50.1329 0011643  66.2019 294.0439 15.25699560387729"
      },
      "geometry": {
        "type": "Point",
        "coordinates": [
          -120.85667327308401,
          47.963010615983116
        ]
      }
    },
    {
      "type": "Feature",
      "properties": {
        "norad_id": 43833,
        "name": "SAUDISAT 5B",
        "group": "resource",
        "lat": -8.869238816802474,
        "lon": -127.47925118317455,
        "alt_km": 496.43503911073367,
        "timestamp": "2025-12-16T19:34:23.922782+00:00",
        "meta_object_name": "SAUDISAT 5B",
        "meta_object_id": "2018-102C",
        "meta_epoch": "2025-12-15T23:51:54.725760",
        "meta_mean_motion": 15.260503,
        "meta_eccentricity": 0.00123671,
        "meta_inclination": 97.345,
        "meta_ra_of_asc_node": 52.8672,
        "meta_arg_of_pericenter": 68.4849,
        "meta_mean_anomaly": 291.7706,
        "meta_ephemeris_type": 0,
        "meta_classification_type": "U",
        "meta_norad_cat_id": 43833,
        "meta_element_set_no": 999,
        "meta_rev_at_epoch": 38783,
        "meta_bstar": 0.00018625562,
        "meta_mean_motion_dot": 4.733e-05,
        "meta_mean_motion_ddot": 0,
        "tle_line1": "1 43833U 18102C   25349.99438340  .00004733  00000+0  18626-3 0  9998",
        "tle_line2": "2 43833  97.3450  52.8672 0012367  68.4849 291.7706 15.26050300387832"
      },
      "geometry": {
        "type": "Point",
        "coordinates": [
          -127.47925118317455,
          -8.869238816802474
        ]
      }
    },
    {
      "type": "Feature",
      "properties": {
        "norad_id": 44622,
        "name": "GAOFEN-10R",
        "group": "resource",
        "lat": -38.33064917518003,
        "lon": 111.93092426540609,
        "alt_km": 632.2410346432944,
        "timestamp": "2025-12-16T19:34:23.922793+00:00",
        "meta_object_name": "GAOFEN-10R",
        "meta_object_id": "2019-066A",
        "meta_epoch": "2025-12-15T23:09:20.701152",
        "meta_mean_motion": 14.82803296,
        "meta_eccentricity": 0.00076714,
        "meta_inclination": 98.0281,
        "meta_ra_of_asc_node": 297.4836,
        "meta_arg_of_pericenter": 32.5892,
        "meta_mean_anomaly": 327.5793,
        "meta_ephemeris_type": 0,
        "meta_classification_type": "U",
        "meta_norad_cat_id": 44622,
        "meta_element_set_no": 999,
        "meta_rev_at_epoch": 33522,
        "meta_bstar": 0.00020256317,
        "meta_mean_motion_dot": 1.584e-05,
        "meta_mean_motion_ddot": 0,
        "tle_line1": "1 44622U 19066A   25349.96482293  .00001584  00000+0  20256-3 0  9991",
        "tle_line2": "2 44622  98.0281 297.4836 0007671  32.5892 327.5793 14.82803296335221"
      },
      "geometry": {
        "type": "Point",
        "coordinates": [
          111.93092426540609,
          -38.33064917518003
        ]
      }
    },
    {
      "type": "Feature",
      "properties": {
        "norad_id": 44804,
        "name": "CARTOSAT-3",
        "group": "resource",
        "lat": -14.878664417515436,
        "lon": -131.646833316305,
        "alt_km": 518.6584504886268,
        "timestamp": "2025-12-16T19:34:23.922803+00:00",
        "meta_object_name": "CARTOSAT-3",
        "meta_object_id": "2019-081A",
        "meta_epoch": "2025-12-15T23:44:58.854912",
        "meta_mean_motion": 15.19179712,
        "meta_eccentricity": 0.00140825,
        "meta_inclination": 97.4584,
        "meta_ra_of_asc_node": 49.5323,
        "meta_arg_of_pericenter": 72.7318,
        "meta_mean_anomaly": 287.5456,
        "meta_ephemeris_type": 0,
        "meta_classification_type": "U",
        "meta_norad_cat_id": 44804,
        "meta_element_set_no": 999,
        "meta_rev_at_epoch": 33565,
        "meta_bstar": 0.00016690855,
        "meta_mean_motion_dot": 3.45e-05,
        "meta_mean_motion_ddot": 0,
        "tle_line1": "1 44804U 19081A   25349.98957008  .00003450  00000+0  16691-3 0  9995",
        "tle_line2": "2 44804  97.4584  49.5323 0014082  72.7318 287.5456 15.19179712335650"
      },
      "geometry": {
        "type": "Point",
        "coordinates": [
          -131.646833316305,
          -14.878664417515436
        ]
      }
    },
    {
      "type": "Feature",
      "properties": {
        "norad_id": 44819,
        "name": "GAOFEN-12 01",
        "group": "resource",
        "lat": 81.09541364257538,
        "lon": -121.81052683128792,
        "alt_km": 620.3023011147225,
        "timestamp": "2025-12-16T19:34:23.922813+00:00",
        "meta_object_name": "GAOFEN-12 01",
        "meta_object_id": "2019-082A",
        "meta_epoch": "2025-12-15T23:41:11.013792",
        "meta_mean_motion": 14.80661193,
        "meta_eccentricity": 0.00015014,
        "meta_inclination": 97.8125,
        "meta_ra_of_asc_node": 356.1827,
        "meta_arg_of_pericenter": 215.1771,
        "meta_mean_anomaly": 144.9342,
        "meta_ephemeris_type": 0,
        "meta_classification_type": "U",
        "meta_norad_cat_id": 44819,
        "meta_element_set_no": 999,
        "meta_rev_at_epoch": 32698,
        "meta_bstar": 7.1003359e-05,
        "meta_mean_motion_dot": 4.95e-06,
        "meta_mean_motion_ddot": 0,
        "tle_line1": "1 44819U 19082A   25349.98693303  .00000495  00000+0  71003-4 0  9992",
        "tle_line2": "2 44819  97.8125 356.1827 0001501 215.1771 144.9342 14.80661193326987"
      },
      "geometry": {
        "type": "Point",
        "coordinates": [
          -121.81052683128792,
          81.09541364257538
        ]
      }
    }
  ]
}